ONEWEB-0136             
1 47282U 20100AA  24304.46542944  .00000308  00000+0  82146-3 0  9991
2 47282  87.8842 109.0764 0001676  71.5218 288.6093 13.12439544186651
ONEWEB-0137             
1 47283U 20100AB  24304.42323143 -.00000701  00000+0 -19833-2 0  9997
2 47283  87.8837 109.1033 0001395  92.8470 267.2818 13.12442853186554
ONEWEB-0138             
1 47284U 20100AC  24304.40215012 -.00000159  00000+0 -47626-3 0  9990
2 47284  87.8837 109.1196 0001499  86.0138 274.1162 13.12439966186635
ONEWEB-0139             
1 47285U 20100AD  24304.36500160  .00000312  00000+0  83098-3 0  9999
2 47285  87.8844 109.1043 0001519  89.4217 270.7085 13.12442878186703
ONEWEB-0140             
1 47286U 20100AE  24304.16695470 -.00000020  00000+0 -91880-4 0  9994
2 47286  87.8835 109.1426 0001577  83.9465 276.1843 13.12443507186642
ONEWEB-0141             
1 47287U 20100AF  24304.44095628  .00000277  00000+0  73593-3 0  9997
2 47287  87.8840 109.1016 0001389  94.2071 265.9216 13.12442456186667
ONEWEB-0142             
1 47288U 20100AG  24304.40944429 -.00000462  00000+0 -13195-2 0  9995
2 47288  87.8837 109.0885 0001273  85.0059 275.1215 13.12441295186654
ONEWEB-0143             
1 47289U 20100AH  24304.21073938  .00000300  00000+0  79759-3 0  9991
2 47289  87.8842 109.1504 0001520  89.1233 271.0070 13.12440770186600
